H-2A R/B                
1 38341U 12025E   25300.43334692  .00004967  00000+0  46287-3 0  9998
2 38341  98.4526 252.1310 0046675  30.3086 330.0816 14.93947865728315
SHIJIAN-16 (SJ-16)      
1 39358U 13057A   25300.53200440  .00001899  00000+0  19096-3 0  9996
2 39358  74.9722  77.0653 0015976  74.7259 285.5693 14.91732455651642
SL-4 R/B                
1 39679U 14021B   25300.28584054  .00018020  00000+0  44657-3 0  9997
2 39679  51.6082 266.0636 0105466 338.7786  20.8838 15.34868622635751
ALOS-2                  
1 39766U 14029A   25300.54968639  .00001651  00000+0  22814-3 0  9999
2 39766  97.9231  36.0532 0001121  98.3115 261.8223 14.79439240617185
YAOGAN-29               
1 41038U 15069A   25300.52900507  .00000733  00000+0  97373-4 0  9990
2 41038  98.0271 323.5404 0002795  75.6280 284.5243 14.82805711536141
ASTRO-H (HITOMI)        
1 41337U 16012A   25300.25949625  .00004255  00000+0  25719-3 0  9992
2 41337  30.9978 136.9183 0009902  69.9816 290.1887 15.08930923532056
HXMT (HUIYAN)           
1 42758U 17034A   25300.53525476  .00008172  00000+0  43054-3 0  9994
2 42758  43.0153  35.8864 0031891 114.5888 245.8288 15.15483469462325
CZ-2C R/B               
1 43521U 18054D   25299.90495020  .00070831  00000+0  69394-3 0  9991
2 43521  35.1345 136.1035 0026317  49.4704 310.8313 15.64453248407691
SAOCOM 1A               
1 43641U 18076A   25300.49469132  .00000763  00000+0  10233-3 0  9995
2 43641  97.8878 125.5849 0001429  85.8337 274.3039 14.82168127381630
H-2A R/B                
1 43682U 18084L   25300.44686481  .00020268  00000+0  58848-3 0  9998
2 43682  98.8821 125.0166 0029382 123.1368 237.2696 15.35121358385296
SAOCOM 1B               
1 46265U 20059A   25300.52597315  .00000751  00000+0  10082-3 0  9992
2 46265  97.8866 124.7189 0001366  88.3210 271.8159 14.82159414279021
CSS (TIANHE)            
1 48274U 21035A   25300.35149447  .00033995  00000+0  39819-3 0  9994
2 48274  41.4667 298.4948 0010887 291.8902  68.0779 15.60759072256781
