CCSDS_OMM_VERS = 2.0
CREATION_DATE  = 
ORIGINATOR     = 

OBJECT_NAME    = H-2A R/B
OBJECT_ID      = 2012-025E
CENTER_NAME    = EARTH
REF_FRAME      = TEME
TIME_SYSTEM    = UTC
MEAN_ELEMENT_THEORY = SGP/SGP4

EPOCH          = 2025-10-27T10:24:01.173888
MEAN_MOTION    = 14.93947865
ECCENTRICITY   = .0046675
INCLINATION    = 98.4526
RA_OF_ASC_NODE = 252.1310
ARG_OF_PERICENTER = 30.3086
MEAN_ANOMALY   = 330.0816

EPHEMERIS_TYPE = 0
CLASSIFICATION_TYPE = U
NORAD_CAT_ID   = 38341
ELEMENT_SET_NO = 999
REV_AT_EPOCH   = 72831
BSTAR          = .46287E-3
MEAN_MOTION_DOT = .4967E-4
MEAN_MOTION_DDOT = 0

CCSDS_OMM_VERS = 2.0
CREATION_DATE  = 
ORIGINATOR     = 

OBJECT_NAME    = SHIJIAN-16 (SJ-16)
OBJECT_ID      = 2013-057A
CENTER_NAME    = EARTH
REF_FRAME      = TEME
TIME_SYSTEM    = UTC
MEAN_ELEMENT_THEORY = SGP/SGP4

EPOCH          = 2025-10-27T12:46:05.180160
MEAN_MOTION    = 14.91732455
ECCENTRICITY   = .0015976
INCLINATION    = 74.9722
RA_OF_ASC_NODE = 77.0653
ARG_OF_PERICENTER = 74.7259
MEAN_ANOMALY   = 285.5693

EPHEMERIS_TYPE = 0
CLASSIFICATION_TYPE = U
NORAD_CAT_ID   = 39358
ELEMENT_SET_NO = 999
REV_AT_EPOCH   = 65164
BSTAR          = .19096E-3
MEAN_MOTION_DOT = .1899E-4
MEAN_MOTION_DDOT = 0

CCSDS_OMM_VERS = 2.0
CREATION_DATE  = 
ORIGINATOR     = 

OBJECT_NAME    = SL-4 R/B
OBJECT_ID      = 2014-021B
CENTER_NAME    = EARTH
REF_FRAME      = TEME
TIME_SYSTEM    = UTC
MEAN_ELEMENT_THEORY = SGP/SGP4

EPOCH          = 2025-10-27T06:51:36.622656
MEAN_MOTION    = 15.34868622
ECCENTRICITY   = .0105466
INCLINATION    = 51.6082
RA_OF_ASC_NODE = 266.0636
ARG_OF_PERICENTER = 338.7786
MEAN_ANOMALY   = 20.8838

EPHEMERIS_TYPE = 0
CLASSIFICATION_TYPE = U
NORAD_CAT_ID   = 39679
ELEMENT_SET_NO = 999
REV_AT_EPOCH   = 63575
BSTAR          = .44657E-3
MEAN_MOTION_DOT = .1802E-3
MEAN_MOTION_DDOT = 0

CCSDS_OMM_VERS = 2.0
CREATION_DATE  = 
ORIGINATOR     = 

OBJECT_NAME    = ALOS-2
OBJECT_ID      = 2014-029A
CENTER_NAME    = EARTH
REF_FRAME      = TEME
TIME_SYSTEM    = UTC
MEAN_ELEMENT_THEORY = SGP/SGP4

EPOCH          = 2025-10-27T13:11:32.904096
MEAN_MOTION    = 14.79439240
ECCENTRICITY   = .0001121
INCLINATION    = 97.9231
RA_OF_ASC_NODE = 36.0532
ARG_OF_PERICENTER = 98.3115
MEAN_ANOMALY   = 261.8223

EPHEMERIS_TYPE = 0
CLASSIFICATION_TYPE = U
NORAD_CAT_ID   = 39766
ELEMENT_SET_NO = 999
REV_AT_EPOCH   = 61718
BSTAR          = .22814E-3
MEAN_MOTION_DOT = .1651E-4
MEAN_MOTION_DDOT = 0

CCSDS_OMM_VERS = 2.0
CREATION_DATE  = 
ORIGINATOR     = 

OBJECT_NAME    = YAOGAN-29
OBJECT_ID      = 2015-069A
CENTER_NAME    = EARTH
REF_FRAME      = TEME
TIME_SYSTEM    = UTC
MEAN_ELEMENT_THEORY = SGP/SGP4

EPOCH          = 2025-10-27T12:41:46.038048
MEAN_MOTION    = 14.82805711
ECCENTRICITY   = .0002795
INCLINATION    = 98.0271
RA_OF_ASC_NODE = 323.5404
ARG_OF_PERICENTER = 75.6280
MEAN_ANOMALY   = 284.5243

EPHEMERIS_TYPE = 0
CLASSIFICATION_TYPE = U
NORAD_CAT_ID   = 41038
ELEMENT_SET_NO = 999
REV_AT_EPOCH   = 53614
BSTAR          = .97373E-4
MEAN_MOTION_DOT = .733E-5
MEAN_MOTION_DDOT = 0

CCSDS_OMM_VERS = 2.0
CREATION_DATE  = 
ORIGINATOR     = 

OBJECT_NAME    = ASTRO-H (HITOMI)
OBJECT_ID      = 2016-012A
CENTER_NAME    = EARTH
REF_FRAME      = TEME
TIME_SYSTEM    = UTC
MEAN_ELEMENT_THEORY = SGP/SGP4

EPOCH          = 2025-10-27T06:13:40.476000
MEAN_MOTION    = 15.08930923
ECCENTRICITY   = .0009902
INCLINATION    = 30.9978
RA_OF_ASC_NODE = 136.9183
ARG_OF_PERICENTER = 69.9816
MEAN_ANOMALY   = 290.1887

EPHEMERIS_TYPE = 0
CLASSIFICATION_TYPE = U
NORAD_CAT_ID   = 41337
ELEMENT_SET_NO = 999
REV_AT_EPOCH   = 53205
BSTAR          = .25719E-3
MEAN_MOTION_DOT = .4255E-4
MEAN_MOTION_DDOT = 0

CCSDS_OMM_VERS = 2.0
CREATION_DATE  = 
ORIGINATOR     = 

OBJECT_NAME    = HXMT (HUIYAN)
OBJECT_ID      = 2017-034A
CENTER_NAME    = EARTH
REF_FRAME      = TEME
TIME_SYSTEM    = UTC
MEAN_ELEMENT_THEORY = SGP/SGP4

EPOCH          = 2025-10-27T12:50:46.011264
MEAN_MOTION    = 15.15483469
ECCENTRICITY   = .0031891
INCLINATION    = 43.0153
RA_OF_ASC_NODE = 35.8864
ARG_OF_PERICENTER = 114.5888
MEAN_ANOMALY   = 245.8288

EPHEMERIS_TYPE = 0
CLASSIFICATION_TYPE = U
NORAD_CAT_ID   = 42758
ELEMENT_SET_NO = 999
REV_AT_EPOCH   = 46232
BSTAR          = .43054E-3
MEAN_MOTION_DOT = .8172E-4
MEAN_MOTION_DDOT = 0

CCSDS_OMM_VERS = 2.0
CREATION_DATE  = 
ORIGINATOR     = 

OBJECT_NAME    = CZ-2C R/B
OBJECT_ID      = 2018-054D
CENTER_NAME    = EARTH
REF_FRAME      = TEME
TIME_SYSTEM    = UTC
MEAN_ELEMENT_THEORY = SGP/SGP4

EPOCH          = 2025-10-26T21:43:07.697280
MEAN_MOTION    = 15.64453248
ECCENTRICITY   = .0026317
INCLINATION    = 35.1345
RA_OF_ASC_NODE = 136.1035
ARG_OF_PERICENTER = 49.4704
MEAN_ANOMALY   = 310.8313

EPHEMERIS_TYPE = 0
CLASSIFICATION_TYPE = U
NORAD_CAT_ID   = 43521
ELEMENT_SET_NO = 999
REV_AT_EPOCH   = 40769
BSTAR          = .69394E-3
MEAN_MOTION_DOT = .70831E-3
MEAN_MOTION_DDOT = 0

CCSDS_OMM_VERS = 2.0
CREATION_DATE  = 
ORIGINATOR     = 

OBJECT_NAME    = SAOCOM 1A
OBJECT_ID      = 2018-076A
CENTER_NAME    = EARTH
REF_FRAME      = TEME
TIME_SYSTEM    = UTC
MEAN_ELEMENT_THEORY = SGP/SGP4

EPOCH          = 2025-10-27T11:52:21.330048
MEAN_MOTION    = 14.82168127
ECCENTRICITY   = .0001429
INCLINATION    = 97.8878
RA_OF_ASC_NODE = 125.5849
ARG_OF_PERICENTER = 85.8337
MEAN_ANOMALY   = 274.3039

EPHEMERIS_TYPE = 0
CLASSIFICATION_TYPE = U
NORAD_CAT_ID   = 43641
ELEMENT_SET_NO = 999
REV_AT_EPOCH   = 38163
BSTAR          = .10233E-3
MEAN_MOTION_DOT = .763E-5
MEAN_MOTION_DDOT = 0

CCSDS_OMM_VERS = 2.0
CREATION_DATE  = 
ORIGINATOR     = 

OBJECT_NAME    = H-2A R/B
OBJECT_ID      = 2018-084L
CENTER_NAME    = EARTH
REF_FRAME      = TEME
TIME_SYSTEM    = UTC
MEAN_ELEMENT_THEORY = SGP/SGP4

EPOCH          = 2025-10-27T10:43:29.119584
MEAN_MOTION    = 15.35121358
ECCENTRICITY   = .0029382
INCLINATION    = 98.8821
RA_OF_ASC_NODE = 125.0166
ARG_OF_PERICENTER = 123.1368
MEAN_ANOMALY   = 237.2696

EPHEMERIS_TYPE = 0
CLASSIFICATION_TYPE = U
NORAD_CAT_ID   = 43682
ELEMENT_SET_NO = 999
REV_AT_EPOCH   = 38529
BSTAR          = .58848E-3
MEAN_MOTION_DOT = .20268E-3
MEAN_MOTION_DDOT = 0

CCSDS_OMM_VERS = 2.0
CREATION_DATE  = 
ORIGINATOR     = 

OBJECT_NAME    = SAOCOM 1B
OBJECT_ID      = 2020-059A
CENTER_NAME    = EARTH
REF_FRAME      = TEME
TIME_SYSTEM    = UTC
MEAN_ELEMENT_THEORY = SGP/SGP4

EPOCH          = 2025-10-27T12:37:24.080160
MEAN_MOTION    = 14.82159414
ECCENTRICITY   = .0001366
INCLINATION    = 97.8866
RA_OF_ASC_NODE = 124.7189
ARG_OF_PERICENTER = 88.3210
MEAN_ANOMALY   = 271.8159

EPHEMERIS_TYPE = 0
CLASSIFICATION_TYPE = U
NORAD_CAT_ID   = 46265
ELEMENT_SET_NO = 999
REV_AT_EPOCH   = 27902
BSTAR          = .10082E-3
MEAN_MOTION_DOT = .751E-5
MEAN_MOTION_DDOT = 0

CCSDS_OMM_VERS = 2.0
CREATION_DATE  = 
ORIGINATOR     = 

OBJECT_NAME    = CSS (TIANHE)
OBJECT_ID      = 2021-035A
CENTER_NAME    = EARTH
REF_FRAME      = TEME
TIME_SYSTEM    = UTC
MEAN_ELEMENT_THEORY = SGP/SGP4

EPOCH          = 2025-10-27T08:26:09.122208
MEAN_MOTION    = 15.60759072
ECCENTRICITY   = .0010887
INCLINATION    = 41.4667
RA_OF_ASC_NODE = 298.4948
ARG_OF_PERICENTER = 291.8902
MEAN_ANOMALY   = 68.0779

EPHEMERIS_TYPE = 0
CLASSIFICATION_TYPE = U
NORAD_CAT_ID   = 48274
ELEMENT_SET_NO = 999
REV_AT_EPOCH   = 25678
BSTAR          = .39819E-3
MEAN_MOTION_DOT = .33995E-3
MEAN_MOTION_DDOT = 0

